ONEWEB-0456             
1 51646U 22012AA  25019.83915605  .00000366  00000+0  10116-2 0  9998
2 51646  87.8912 138.5132 0001610 112.7867 247.3430 13.10375904142117
ONEWEB-0457             
1 51647U 22012AB  25019.81588768 -.00000587  00000+0 -17168-2 0  9994
2 51647  87.8920 138.5592 0001678  91.2270 268.9050 13.10372035142119
ONEWEB-0458             
1 51648U 22012AC  25019.83749493  .00000325  00000+0  89456-3 0  9999
2 51648  87.8907 138.5587 0001431 105.8760 254.2525 13.10375965142077
ONEWEB-0461             
1 51649U 22012AD  25019.74869700 -.00000281  00000+0 -75684-3 0  9995
2 51649  87.9087 108.1485 0001809 102.1821 257.9513 13.17648150146274
ONEWEB-0463             
1 51650U 22012AE  25019.73014580  .00000025  00000+0  30354-4 0  9994
2 51650  87.9095 108.2083 0001715 102.0015 258.1308 13.17647237146056
ONEWEB-0464             
1 51651U 22012AF  25019.83415237  .00000918  00000+0  25916-2 0  9997
2 51651  87.8922 138.5625 0001686 117.7682 242.3617 13.10384024142096
ONEWEB-0468             
1 51652U 22012AG  25019.84080041  .00001534  00000+0  43571-2 0  9992
2 51652  87.8925 138.5534 0001566 107.3691 252.7608 13.10384348142073
ONEWEB-0473             
1 51653U 22012AH  25019.82585025 -.00000325  00000+0 -96670-3 0  9991
2 51653  87.8923 138.5598 0001474 108.8878 251.2409 13.10373514142079
ONEWEB-0474             
1 51654U 22012AJ  25019.81754685 -.00000596  00000+0 -17423-2 0  9999
2 51654  87.8913 138.5383 0001458 115.0681 245.0597 13.10372260142060
ONEWEB-0475             
1 51655U 22012AK  25019.74196210  .00000046  00000+0  84627-4 0  9996
2 51655  87.9094 108.1857 0001052 123.6655 236.4577 13.17652496146073
ONEWEB-0490             
1 54113U 22138A   25019.62743829  .00000039  00000+0  63924-4 0  9997
2 54113  87.9142  47.0561 0001770  98.7918 261.3415 13.19725111109099
ONEWEB-0492             
1 54114U 22138B   25019.57688768  .00000043  00000+0  74502-4 0  9991
2 54114  87.9148  47.0811 0001940 100.6286 259.5066 13.19727296109091
ONEWEB-0495             
1 54115U 22138C   25019.63060713  .00000035  00000+0  54404-4 0  9993
2 54115  87.9148  47.0817 0001588 118.9218 241.2074 13.19723582109083
ONEWEB-0497             
1 54116U 22138D   25019.56743781  .00000066  00000+0  13333-3 0  9998
2 54116  87.9144  47.0731 0001778  97.5998 262.5337 13.19725651109068
ONEWEB-0499             
1 54117U 22138E   25019.62585415  .00000065  00000+0  13015-3 0  9990
2 54117  87.9147  47.0722 0001381  89.4034 270.7257 13.19727542109088
ONEWEB-0500             
1 54118U 22138F   25019.62901251  .00000063  00000+0  12548-3 0  9999
2 54118  87.9144  47.0611 0001881  94.9994 265.1353 13.19727197109096
ONEWEB-0501             
1 54119U 22138G   25019.58320794  .00000048  00000+0  87865-4 0  9990
2 54119  87.9144  47.0658 0001504 108.0361 252.0935 13.19727351109065
ONEWEB-0502             
1 54120U 22138H   25019.56898715  .00000084  00000+0  17831-3 0  9998
2 54120  87.9144  47.0548 0001503  99.9210 260.2093 13.19727111109087
ONEWEB-0503             
1 54121U 22138J   25019.63374911  .00000053  00000+0  99665-4 0  9996
2 54121  87.9141  47.0474 0001633  84.4721 275.6598 13.19723093109088
ONEWEB-0504             
1 54122U 22138K   25019.62111691  .00000032  00000+0  46485-4 0  9999
2 54122  87.9143  47.0611 0001435  95.7914 264.3382 13.19726878109094
ONEWEB-0505             
1 54123U 22138L   25019.61795169 -.00000004  00000+0 -41616-4 0  9999
2 54123  87.9143  47.0535 0001347 111.6422 248.4854 13.19727293109071
ONEWEB-0506             
1 54124U 22138M   25019.59267750  .00000093  00000+0  19946-3 0  9993
2 54124  87.9144  47.0557 0001639  99.5904 260.5414 13.19726587109937
ONEWEB-0507             
1 54125U 22138N   25019.61321128  .00000037  00000+0  59980-4 0  9998
2 54125  87.9151  47.0912 0001729 101.9663 258.1663 13.19727361109986
ONEWEB-0508             
1 54126U 22138P   25019.61005451 -.00000242  00000+0 -63678-3 0  9995
2 54126  87.9147  47.0791 0001733 108.3976 251.7345 13.19725244109962
ONEWEB-0509             
1 54127U 22138Q   25019.58479606  .00000029  00000+0  40359-4 0  9992
2 54127  87.9141  47.0565 0001698  97.3683 262.7643 13.19727210109067
ONEWEB-0510             
1 54128U 22138R   25019.95498349  .00000016  00000+0  72258-5 0  9999
2 54128  87.9256  16.5444 0002087  88.1835 271.9537 13.20773348111536
ONEWEB-0511             
1 54129U 22138S   25019.58162051  .00000008  00000+0 -13296-4 0  9995
2 54129  87.9142  47.0617 0001511  85.8977 274.2328 13.19727794109098
ONEWEB-0512             
1 54130U 22138T   25019.57372355 -.00000102  00000+0 -28754-3 0  9996
2 54130  87.9150  47.0961 0001406 104.7058 255.4230 13.19726495109062
ONEWEB-0513             
1 54131U 22138U   25019.62032131 -.00000027  00000+0 -99888-4 0  9991
2 54131  87.9148  47.0757 0001216  96.3502 263.7769 13.19727049108954
ONEWEB-0514             
1 54132U 22138V   25019.58954224  .00000062  00000+0  12205-3 0  9997
2 54132  87.9143  47.0696 0001787  92.1077 268.0261 13.19727096109088
ONEWEB-0515             
1 54133U 22138W   25019.94236004  .00000093  00000+0  19766-3 0  9990
2 54133  87.9257  16.5246 0002801  89.9221 270.2233 13.20773395111554
ONEWEB-0516             
1 54134U 22138X   25019.64007378  .00000042  00000+0  73337-4 0  9997
2 54134  87.9152  47.0851 0001841  99.3478 260.7863 13.19722745109092
ONEWEB-0517             
1 54135U 22138Y   25019.61953175  .00000055  00000+0  10545-3 0  9995
2 54135  87.9142  47.0590 0001557  83.1820 276.9490 13.19727255109094
ONEWEB-0518             
1 54136U 22138Z   25019.56267024  .00000082  00000+0  17187-3 0  9990
2 54136  87.9150  47.0971 0001729  92.6705 267.4625 13.19723304109080
ONEWEB-0519             
1 54137U 22138AA  25019.58793986  .00000026  00000+0  33286-4 0  9991
2 54137  87.9142  47.0594 0001603  86.6879 273.4437 13.19727190109095
ONEWEB-0520             
1 54138U 22138AB  25019.62268930  .00000042  00000+0  72255-4 0  9990
2 54138  87.9142  47.0557 0001633 107.3046 252.8265 13.19727494109081
ONEWEB-0521             
1 54139U 22138AC  25019.58004153 -.00000065  00000+0 -19355-3 0  9999
2 54139  87.9141  47.0539 0001779  85.3457 274.7879 13.19726342109022
ONEWEB-0522             
1 54140U 22138AD  25019.63533755  .00000063  00000+0  12433-3 0  9998
2 54140  87.9141  47.0442 0001826  97.7640 262.3700 13.19727822109076
ONEWEB-0523             
1 54141U 22138AE  25019.92974066 -.00000010  00000+0 -57203-4 0  9994
2 54141  87.9255  16.5565 0002607  75.8989 284.2434 13.20770846111550
ONEWEB-0524             
1 54142U 22138AF  25019.91869019  .00000090  00000+0  18927-3 0  9990
2 54142  87.9254  16.5611 0002743  97.5215 262.6230 13.20773400111559
ONEWEB-0525             
1 54143U 22138AG  25019.57847154 -.00000029  00000+0 -10434-3 0  9998
2 54143  87.9145  47.0706 0001570 103.5037 256.6271 13.19723312109088
ONEWEB-0526             
1 54144U 22138AH  25019.61163343  .00000008  00000+0 -11441-4 0  9991
2 54144  87.9142  47.0554 0001774  98.8353 261.2981 13.19727650109933
ONEWEB-0529             
1 54145U 22138AJ  25019.61479281  .00000017  00000+0  98941-5 0  9993
2 54145  87.9149  47.0856 0001650 102.9097 257.2220 13.19727301109081
ONEWEB-0531             
1 54146U 22138AK  25019.90447660  .00000035  00000+0  53948-4 0  9999
2 54146  87.9255  16.5569 0002755  81.7287 278.4159 13.20774090112421
ONEWEB-0535             
1 54147U 22138AL  25019.57215254  .00000034  00000+0  52354-4 0  9994
2 54147  87.9142  47.0599 0002052  89.9912 270.1456 13.19726997109093
ONEWEB-0536             
1 54148U 22138AM  25019.89188602 -.00002221  00000+0 -54976-2 0  9998
2 54148  87.9256  16.6057 0002869  82.7493 277.3967 13.20754135112415
ONEWEB-0527             
1 54642U 22166A   25019.94973033  .00000100  00000+0  21024-3 0  9995
2 54642  87.9324 346.2629 0001859  85.6779 274.4568 13.21827778103739
ONEWEB-0528             
1 54643U 22166B   25019.88034675  .00000059  00000+0  11097-3 0  9991
2 54643  87.9327 346.2710 0001756  86.1534 273.9800 13.21823857103732
ONEWEB-0539             
1 54644U 22166C   25019.91662186  .00000090  00000+0  18527-3 0  9990
2 54644  87.9328 346.2686 0001626  78.7175 281.4142 13.21827867103738
ONEWEB-0540             
1 54645U 22166D   25019.91667824 -.00005662  00000+0 -14077-1 0  9991
2 54645  87.9327 346.2770 0001659  78.3715 289.8726 13.20237299  5053
ONEWEB-0542             
1 54646U 22166E   25019.92607745  .00000114  00000+0  24479-3 0  9993
2 54646  87.9327 346.2654 0001665  68.4830 291.6481 13.21827554103733
ONEWEB-0545             
1 54647U 22166F   25019.89296100  .00000021  00000+0  19426-4 0  9993
2 54647  87.9318 346.2716 0001366  65.8501 294.2775 13.21824029104164
ONEWEB-0580             
1 54648U 22166G   25019.94185799  .00000078  00000+0  15641-3 0  9997
2 54648  87.9325 346.2468 0001758  68.6654 291.4667 13.21827455103740
ONEWEB-0582             
1 54649U 22166H   25019.90872853  .00000093  00000+0  19285-3 0  9993
2 54649  87.9322 346.2838 0001757  62.6755 297.4558 13.21824056103710
ONEWEB-0583             
1 54650U 22166J   25019.91978959  .00000086  00000+0  17720-3 0  9994
2 54650  87.9319 346.2784 0001687  79.8187 280.3137 13.21825805103727
ONEWEB-0584             
1 54651U 22166K   25019.94026718  .00000051  00000+0  91728-4 0  9998
2 54651  87.9328 346.2510 0001848  68.2083 291.9248 13.21828426103713
ONEWEB-0585             
1 54652U 22166L   25019.88981229  .00000029  00000+0  38534-4 0  9990
2 54652  87.9316 346.2642 0001861  83.5771 276.5575 13.21827836104184
ONEWEB-0586             
1 54653U 22166M   25019.90244408  .00000098  00000+0  20464-3 0  9993
2 54653  87.9321 346.2735 0001682  75.9702 284.1619 13.21829908103718
ONEWEB-0587             
1 54654U 22166N   25019.91189778  .00000099  00000+0  20709-3 0  9996
2 54654  87.9319 346.2231 0001921  87.8988 272.2366 13.21824339103878
